{"type":"FeatureCollection","crs":{"type":"name","properties":{"name":"EPSG:2232"}},"features":[{"type":"Feature","id":227429,"geometry":{"type":"Polygon","coordinates":[[[3175999.8597319727,1470528.2385266314],[3175995.0513426322,1470875.0288435472],[3175366.1142802988,1470866.2850946279],[3175370.669389307,1470519.4846071308],[3175999.8597319727,1470528.2385266314]]]},"properties":{"OBJECTID":227429,"PARCEL":"7103005001","HYPERLINK":"https://property.spatialest.com/co/elpaso/#/property/7103005001","InPoly_FID":227429,"MaxSimpTol":1,"MinSimpTol":1,"Shape.STArea()":218197.3595704149,"Shape.STLength()":1951.903126950401}}]}