{
  "type": "FeatureCollection",
  "metadata": {
    "title": "Roads of the Merveilles Country",
    "description": "Simplified orientation lines derived from OpenStreetMap road geometry. Not for navigation.",
    "source": "https://www.openstreetmap.org/copyright"
  },
  "features": [
    {
      "type": "Feature",
      "id": "i-25",
      "geometry": {
        "type": "LineString",
        "coordinates": [[-104.8775, 39.24], [-104.8785, 39.226], [-104.8781, 39.219], [-104.868, 39.184], [-104.8585, 39.151], [-104.863, 39.135], [-104.864, 39.128], [-104.864, 39.104], [-104.862, 39.089], [-104.86, 39.085], [-104.853, 39.065]]
      },
      "properties": { "name": "The Great North Road · I‑25", "class": "interstate", "labelOffset": "28%" }
    },
    {
      "type": "Feature",
      "id": "co-105",
      "geometry": {
        "type": "LineString",
        "coordinates": [[-104.913, 39.119], [-104.909, 39.117], [-104.899, 39.111], [-104.886, 39.104], [-104.878, 39.099], [-104.868, 39.098], [-104.864, 39.093], [-104.855, 39.093]]
      },
      "properties": { "name": "Highway 105", "class": "arterial", "labelOffset": "38%" }
    },
    {
      "type": "Feature",
      "id": "south-perry-park-road",
      "geometry": {
        "type": "LineString",
        "coordinates": [[-104.956, 39.24], [-104.939, 39.232], [-104.935, 39.222], [-104.935, 39.206], [-104.924, 39.19], [-104.917, 39.18], [-104.914, 39.144], [-104.91, 39.13], [-104.91, 39.126], [-104.913, 39.119]]
      },
      "properties": { "name": "South Perry Park Road", "class": "arterial", "labelOffset": "36%" }
    },
    {
      "type": "Feature",
      "id": "spruce-mountain-road",
      "geometry": {
        "type": "LineString",
        "coordinates": [[-104.91, 39.126], [-104.904, 39.13], [-104.897, 39.164], [-104.891, 39.195], [-104.886, 39.217], [-104.884, 39.229], [-104.883, 39.24]]
      },
      "properties": { "name": "Spruce Mountain Road", "class": "arterial", "labelOffset": "28%" }
    },
    {
      "type": "Feature",
      "id": "county-line-road",
      "geometry": {
        "type": "LineString",
        "coordinates": [[-104.91, 39.126], [-104.906, 39.128], [-104.901, 39.1295], [-104.895, 39.13], [-104.884, 39.13], [-104.875, 39.13], [-104.864, 39.13]]
      },
      "properties": { "name": "County Line Road", "class": "local", "labelOffset": "42%" }
    },
    {
      "type": "Feature",
      "id": "monument-hill-road",
      "geometry": {
        "type": "LineString",
        "coordinates": [[-104.861, 39.13], [-104.863, 39.124], [-104.865, 39.119], [-104.864, 39.111], [-104.863, 39.103], [-104.863, 39.097]]
      },
      "properties": { "name": "Monument Hill Road", "class": "local", "labelOffset": "18%" }
    }
  ]
}
